start=new Date('2021-09-04T00:00:00.000Z').valueOf();
sats=[{"OBJECT_TYPE":"PAYLOAD","COUNTRY_CODE":"US","MEAN_MOTION_DOT":"0.00000687","EPOCH":"2021-09-03T15:48:42.432480","REV_AT_EPOCH":"8674","LAUNCH_DATE":"2020-02-17","GP_ID":"184047217","DECAY_DATE":null,"APOAPSIS":"548.095","ELEMENT_SET_NO":"999","OBJECT_ID":"2020-012AD","MEAN_ANOMALY":"314.8939","NORAD_CAT_ID":"45205","ECCENTRICITY":"0.00012740","REF_FRAME":"TEME","OBJECT_NAME":"STARLINK-1208","BSTAR":"0.00006502400000","ARG_OF_PERICENTER":"45.2153","TLE_LINE1":"1 45205U 20012AD  21246.65882445  .00000687  00000-0  65024-4 0  9990","FILE":"3108332","TLE_LINE2":"2 45205  53.0535 224.9170 0001274  45.2153 314.8939 15.06400417 86748","PERIOD":"95.592","EPHEMERIS_TYPE":"0","CLASSIFICATION_TYPE":"U","MEAN_MOTION_DDOT":"0.0000000000000","CENTER_NAME":"EARTH","PERIAPSIS":"546.330","MEAN_ELEMENT_THEORY":"SGP4","INCLINATION":"53.0535","MEAN_MOTION":"15.06400417","RCS_SIZE":"LARGE","SEMIMAJOR_AXIS":"6925.347","RA_OF_ASC_NODE":"224.9170","TIME_SYSTEM":"UTC","SITE":"AFETR"},{"LAUNCH_DATE":"2020-02-17","REV_AT_EPOCH":"8604","MEAN_MOTION_DOT":"0.00000709","EPOCH":"2021-09-03T14:52:59.660544","OBJECT_TYPE":"PAYLOAD","COUNTRY_CODE":"US","APOAPSIS":"548.315","GP_ID":"184047965","DECAY_DATE":null,"ECCENTRICITY":"0.00015430","NORAD_CAT_ID":"45206","REF_FRAME":"TEME","MEAN_ANOMALY":"305.7365","ELEMENT_SET_NO":"999","OBJECT_ID":"2020-012AE","ARG_OF_PERICENTER":"54.3768","OBJECT_NAME":"STARLINK-1209","BSTAR":"0.00006651800000","EPHEMERIS_TYPE":"0","PERIOD":"95.593","CLASSIFICATION_TYPE":"U","FILE":"3108332","TLE_LINE2":"2 45206  53.0548 205.0969 0001543  54.3768 305.7365 15.06389283 86043","TLE_LINE1":"1 45206U 20012AE  21246.62013496  .00000709  00000-0  66518-4 0  9994","MEAN_ELEMENT_THEORY":"SGP4","MEAN_MOTION_DDOT":"0.0000000000000","CENTER_NAME":"EARTH","PERIAPSIS":"546.178","RCS_SIZE":"LARGE","MEAN_MOTION":"15.06389283","INCLINATION":"53.0548","SITE":"AFETR","TIME_SYSTEM":"UTC","SEMIMAJOR_AXIS":"6925.381","RA_OF_ASC_NODE":"205.0969"},{"RCS_SIZE":"LARGE","MEAN_MOTION":"15.06399333","INCLINATION":"53.0534","SITE":"AFETR","TIME_SYSTEM":"UTC","SEMIMAJOR_AXIS":"6925.351","RA_OF_ASC_NODE":"224.8171","CLASSIFICATION_TYPE":"U","PERIOD":"95.592","EPHEMERIS_TYPE":"0","FILE":"3108332","TLE_LINE2":"2 45207  53.0534 224.8171 0001050  56.7708 303.3381 15.06399333 86720","TLE_LINE1":"1 45207U 20012AF  21246.68094673 -.00001265  00000-0 -66049-4 0  9996","MEAN_ELEMENT_THEORY":"SGP4","MEAN_MOTION_DDOT":"0.0000000000000","CENTER_NAME":"EARTH","PERIAPSIS":"546.488","NORAD_CAT_ID":"45207","ECCENTRICITY":"0.00010500","REF_FRAME":"TEME","MEAN_ANOMALY":"303.3381","ELEMENT_SET_NO":"999","OBJECT_ID":"2020-012AF","ARG_OF_PERICENTER":"56.7708","BSTAR":"-0.00006604900000","OBJECT_NAME":"STARLINK-1210","REV_AT_EPOCH":"8672","LAUNCH_DATE":"2020-02-17","MEAN_MOTION_DOT":"-0.00001265","EPOCH":"2021-09-03T16:20:33.797472","OBJECT_TYPE":"PAYLOAD","COUNTRY_CODE":"US","APOAPSIS":"547.943","GP_ID":"184048718","DECAY_DATE":null},{"COUNTRY_CODE":"US","OBJECT_TYPE":"PAYLOAD","EPOCH":"2021-09-03T10:04:18.192864","MEAN_MOTION_DOT":"0.00000663","REV_AT_EPOCH":"8660","LAUNCH_DATE":"2020-02-17","DECAY_DATE":null,"GP_ID":"184047468","APOAPSIS":"550.490","ELEMENT_SET_NO":"999","OBJECT_ID":"2020-012AG","MEAN_ANOMALY":"322.6009","REF_FRAME":"TEME","NORAD_CAT_ID":"45208","ECCENTRICITY":"0.00011010","BSTAR":"0.00006467800000","OBJECT_NAME":"STARLINK-1211","ARG_OF_PERICENTER":"37.5055","TLE_LINE1":"1 45208U 20012AG  21246.41965501  .00000663  00000-0  64678-4 0  9990","TLE_LINE2":"2 45208  52.9984 225.9973 0001101  37.5055 322.6009 15.05580228 86601","FILE":"3108332","PERIOD":"95.644","CLASSIFICATION_TYPE":"U","EPHEMERIS_TYPE":"0","CENTER_NAME":"EARTH","PERIAPSIS":"548.964","MEAN_MOTION_DDOT":"0.0000000000000","MEAN_ELEMENT_THEORY":"SGP4","INCLINATION":"52.9984","MEAN_MOTION":"15.05580228","RCS_SIZE":"LARGE","RA_OF_ASC_NODE":"225.9973","SEMIMAJOR_AXIS":"6927.862","TIME_SYSTEM":"UTC","SITE":"AFETR"},{"MEAN_MOTION":"15.69708893","INCLINATION":"53.0542","RCS_SIZE":"LARGE","SEMIMAJOR_AXIS":"6737.867","RA_OF_ASC_NODE":"194.4854","SITE":"AFETR","TIME_SYSTEM":"UTC","TLE_LINE1":"1 45209U 20012AH  21246.20774611 -.00004286  00000-0 -30413-4 0  9995","PERIOD":"91.737","CLASSIFICATION_TYPE":"U","EPHEMERIS_TYPE":"0","FILE":"3107903","TLE_LINE2":"2 45209  53.0542 194.4854 0006841 311.7588  48.2843 15.69708893 87053","MEAN_MOTION_DDOT":"0.0000000000000","PERIAPSIS":"355.123","CENTER_NAME":"EARTH","MEAN_ELEMENT_THEORY":"SGP4","ELEMENT_SET_NO":"999","OBJECT_ID":"2020-012AH","ECCENTRICITY":"0.00068410","NORAD_CAT_ID":"45209","REF_FRAME":"TEME","MEAN_ANOMALY":"48.2843","OBJECT_NAME":"STARLINK-1218","BSTAR":"-0.00003041300000","ARG_OF_PERICENTER":"311.7588","OBJECT_TYPE":"PAYLOAD","COUNTRY_CODE":"US","LAUNCH_DATE":"2020-02-17","REV_AT_EPOCH":"8705","MEAN_MOTION_DOT":"-0.00004286","EPOCH":"2021-09-03T04:59:09.263904","GP_ID":"184015020","DECAY_DATE":null,"APOAPSIS":"364.341"},{"COUNTRY_CODE":"US","OBJECT_TYPE":"PAYLOAD","REV_AT_EPOCH":"8657","LAUNCH_DATE":"2020-02-17","EPOCH":"2021-09-03T10:03:42.785280","MEAN_MOTION_DOT":"-0.00001288","DECAY_DATE":null,"GP_ID":"184048466","APOAPSIS":"547.990","OBJECT_ID":"2020-012AJ","ELEMENT_SET_NO":"999","REF_FRAME":"TEME","ECCENTRICITY":"0.00010810","NORAD_CAT_ID":"45210","MEAN_ANOMALY":"314.5309","BSTAR":"-0.00006761400000","OBJECT_NAME":"STARLINK-1219","ARG_OF_PERICENTER":"45.5768","TLE_LINE1":"1 45210U 20012AJ  21246.41924520 -.00001288  00000-0 -67614-4 0  9998","PERIOD":"95.593","CLASSIFICATION_TYPE":"U","EPHEMERIS_TYPE":"0","TLE_LINE2":"2 45210  53.0539 226.0034 0001081  45.5768 314.5309 15.06390842 86570","FILE":"3108332","PERIAPSIS":"546.493","CENTER_NAME":"EARTH","MEAN_MOTION_DDOT":"0.0000000000000","MEAN_ELEMENT_THEORY":"SGP4","MEAN_MOTION":"15.06390842","INCLINATION":"53.0539","RCS_SIZE":"LARGE","RA_OF_ASC_NODE":"226.0034","SEMIMAJOR_AXIS":"6925.377","SITE":"AFETR","TIME_SYSTEM":"UTC"},{"RA_OF_ASC_NODE":"224.9582","SEMIMAJOR_AXIS":"6925.352","SITE":"AFETR","TIME_SYSTEM":"UTC","MEAN_MOTION":"15.06398865","INCLINATION":"53.0545","RCS_SIZE":"LARGE","CENTER_NAME":"EARTH","PERIAPSIS":"546.613","MEAN_MOTION_DDOT":"0.0000000000000","MEAN_ELEMENT_THEORY":"SGP4","TLE_LINE1":"1 45212U 20012AL  21246.65146224 -.00000784  00000-0 -33743-4 0  9999","EPHEMERIS_TYPE":"0","PERIOD":"95.592","CLASSIFICATION_TYPE":"U","TLE_LINE2":"2 45212  53.0545 224.9582 0000872  33.9471 326.1573 15.06398865 86679","FILE":"3108332","BSTAR":"-0.00003374300000","OBJECT_NAME":"STARLINK-1231","ARG_OF_PERICENTER":"33.9471","ELEMENT_SET_NO":"999","OBJECT_ID":"2020-012AL","REF_FRAME":"TEME","ECCENTRICITY":"0.00008720","NORAD_CAT_ID":"45212","MEAN_ANOMALY":"326.1573","DECAY_DATE":null,"GP_ID":"184048218","APOAPSIS":"547.821","COUNTRY_CODE":"US","OBJECT_TYPE":"PAYLOAD","LAUNCH_DATE":"2020-02-17","REV_AT_EPOCH":"8667","EPOCH":"2021-09-03T15:38:06.337536","MEAN_MOTION_DOT":"-0.00000784"},{"MEAN_ELEMENT_THEORY":"SGP4","MEAN_MOTION_DDOT":"0.0000000000000","PERIAPSIS":"546.212","CENTER_NAME":"EARTH","FILE":"3108332","TLE_LINE2":"2 45213  53.0548 224.9426 0001147  62.6042 297.5064 15.06467632 86720","PERIOD":"95.588","CLASSIFICATION_TYPE":"U","EPHEMERIS_TYPE":"0","TLE_LINE1":"1 45213U 20012AM  21246.65493050  .00000652  00000-0  62541-4 0  9992","TIME_SYSTEM":"UTC","SITE":"AFETR","SEMIMAJOR_AXIS":"6925.141","RA_OF_ASC_NODE":"224.9426","RCS_SIZE":"LARGE","INCLINATION":"53.0548","MEAN_MOTION":"15.06467632","APOAPSIS":"547.801","GP_ID":"184046968","DECAY_DATE":null,"MEAN_MOTION_DOT":"0.00000652","EPOCH":"2021-09-03T15:43:05.995200","LAUNCH_DATE":"2020-02-17","REV_AT_EPOCH":"8672","OBJECT_TYPE":"PAYLOAD","COUNTRY_CODE":"US","ARG_OF_PERICENTER":"62.6042","BSTAR":"0.00006254100000","OBJECT_NAME":"STARLINK-1232","MEAN_ANOMALY":"297.5064","NORAD_CAT_ID":"45213","ECCENTRICITY":"0.00011470","REF_FRAME":"TEME","OBJECT_ID":"2020-012AM","ELEMENT_SET_NO":"999"},{"CENTER_NAME":"EARTH","PERIAPSIS":"546.331","MEAN_MOTION_DDOT":"0.0000000000000","MEAN_ELEMENT_THEORY":"SGP4","TLE_LINE1":"1 45214U 20012AN  21246.42661308 -.00000861  00000-0 -38931-4 0  9991","PERIOD":"95.592","CLASSIFICATION_TYPE":"U","EPHEMERIS_TYPE":"0","TLE_LINE2":"2 45214  53.0526 225.9664 0001272  46.9653 313.1443 15.06400452 86682","FILE":"3108332","RA_OF_ASC_NODE":"225.9664","SEMIMAJOR_AXIS":"6925.347","SITE":"AFETR","TIME_SYSTEM":"UTC","MEAN_MOTION":"15.06400452","INCLINATION":"53.0526","RCS_SIZE":"LARGE","DECAY_DATE":null,"GP_ID":"184047218","APOAPSIS":"548.093","COUNTRY_CODE":"US","OBJECT_TYPE":"PAYLOAD","REV_AT_EPOCH":"8668","LAUNCH_DATE":"2020-02-17","EPOCH":"2021-09-03T10:14:19.370112","MEAN_MOTION_DOT":"-0.00000861","BSTAR":"-0.00003893100000","OBJECT_NAME":"STARLINK-1233","ARG_OF_PERICENTER":"46.9653","OBJECT_ID":"2020-012AN","ELEMENT_SET_NO":"999","REF_FRAME":"TEME","ECCENTRICITY":"0.00012720","NORAD_CAT_ID":"45214","MEAN_ANOMALY":"313.1443"},{"MEAN_MOTION":"15.06401308","INCLINATION":"53.0537","RCS_SIZE":"LARGE","RA_OF_ASC_NODE":"225.9749","SEMIMAJOR_AXIS":"6925.345","SITE":"AFETR","TIME_SYSTEM":"UTC","TLE_LINE1":"1 45215U 20012AP  21246.42293376 -.00000598  00000-0 -21246-4 0  9996","PERIOD":"95.592","CLASSIFICATION_TYPE":"U","EPHEMERIS_TYPE":"0","TLE_LINE2":"2 45215  53.0537 225.9749 0000918  38.1417 321.9637 15.06401308 86623","FILE":"3108332","PERIAPSIS":"546.574","CENTER_NAME":"EARTH","MEAN_MOTION_DDOT":"0.0000000000000","MEAN_ELEMENT_THEORY":"SGP4","ELEMENT_SET_NO":"999","OBJECT_ID":"2020-012AP","REF_FRAME":"TEME","NORAD_CAT_ID":"45215","ECCENTRICITY":"0.00009180","MEAN_ANOMALY":"321.9637","BSTAR":"-0.00002124600000","OBJECT_NAME":"STARLINK-1245","ARG_OF_PERICENTER":"38.1417","COUNTRY_CODE":"US","OBJECT_TYPE":"PAYLOAD","REV_AT_EPOCH":"8662","LAUNCH_DATE":"2020-02-17","EPOCH":"2021-09-03T10:09:01.476864","MEAN_MOTION_DOT":"-0.00000598","DECAY_DATE":null,"GP_ID":"184047966","APOAPSIS":"547.845"}];
